{
  "norad_id": 62234,
  "name": "STARLINK-32652",
  "history": [
    {
      "epoch": "2026-03-28T12:49:41.810880",
      "apogee_km": 475.90684883288213,
      "perigee_km": 474.50575132861286,
      "latitude_deg": -51.4948336149641,
      "longitude_deg": 94.71312319976278,
      "semi_major_axis_km": 6853.343300080747,
      "eccentricity": 0.00010222,
      "inclination_deg": 53.159,
      "raan_deg": 132.0935,
      "arg_perigee_deg": 85.5398,
      "mean_anomaly_deg": 274.572,
      "mean_motion_rev_day": 15.30202937
    }
  ]
}